{
    "links": {
        "self": "http://www.neowsapp.com/rest/v1/neo/3844005?api_key=iIulBulltgU6a56xZRHN4H3l9WmuAYTsLGpBGhQ2"
    },
    "id": "3844005",
    "neo_reference_id": "3844005",
    "name": "(2019 SQ2)",
    "designation": "2019 SQ2",
    "nasa_jpl_url": "http://ssd.jpl.nasa.gov/sbdb.cgi?sstr=3844005",
    "absolute_magnitude_h": 23.9,
    "estimated_diameter": {
        "kilometers": {
            "estimated_diameter_min": 0.04411182,
            "estimated_diameter_max": 0.0986370281
        },
        "meters": {
            "estimated_diameter_min": 44.1118199997,
            "estimated_diameter_max": 98.6370281305
        },
        "miles": {
            "estimated_diameter_min": 0.0274098057,
            "estimated_diameter_max": 0.0612901888
        },
        "feet": {
            "estimated_diameter_min": 144.7238235278,
            "estimated_diameter_max": 323.6123073718
        }
    },
    "is_potentially_hazardous_asteroid": false,
    "close_approach_data": [
        {
            "close_approach_date": "2019-09-19",
            "close_approach_date_full": "2019-Sep-19 16:43",
            "epoch_date_close_approach": 1568911380000,
            "relative_velocity": {
                "kilometers_per_second": "19.5153154189",
                "kilometers_per_hour": "70255.1355080926",
                "miles_per_hour": "43653.8090605701"
            },
            "miss_distance": {
                "astronomical": "0.0259403273",
                "lunar": "10.0907873197",
                "kilometers": "3880617.711182851",
                "miles": "2411304.0320753038"
            },
            "orbiting_body": "Earth"
        },
        {
            "close_approach_date": "2145-08-07",
            "close_approach_date_full": "2145-Aug-07 22:38",
            "epoch_date_close_approach": 5541431880000,
            "relative_velocity": {
                "kilometers_per_second": "7.8160371429",
                "kilometers_per_hour": "28137.733714383",
                "miles_per_hour": "17483.6934849176"
            },
            "miss_distance": {
                "astronomical": "1.5737650399",
                "lunar": "612.1946005211",
                "kilometers": "235431897.849505013",
                "miles": "146290597.7385266594"
            },
            "orbiting_body": "Juptr"
        }
    ],
    "orbital_data": {
        "orbit_id": "2",
        "orbit_determination_date": "2019-11-07 01:46:43",
        "first_observation_date": "2019-09-22",
        "last_observation_date": "2019-10-08",
        "data_arc_in_days": 16,
        "observations_used": 45,
        "orbit_uncertainty": "8",
        "minimum_orbit_intersection": ".0127245",
        "jupiter_tisserand_invariant": "2.898",
        "epoch_osculation": "2458749.5",
        "eccentricity": ".683489313894672",
        "semi_major_axis": "2.688319542238792",
        "inclination": "23.46202977611297",
        "ascending_node_longitude": "358.9040840593926",
        "orbital_period": "1609.977328843062",
        "perihelion_distance": ".8508818627843613",
        "perihelion_argument": "305.9804755419273",
        "aphelion_distance": "4.525757221693222",
        "perihelion_time": "2458709.903996215486",
        "mean_anomaly": "8.853889497107664",
        "mean_motion": ".2236056331667092",
        "equinox": "J2000",
        "orbit_class": {
            "orbit_class_type": "APO",
            "orbit_class_description": "Near-Earth asteroid orbits which cross the Earth’s orbit similar to that of 1862 Apollo",
            "orbit_class_range": "a (semi-major axis) > 1.0 AU; q (perihelion) < 1.017 AU"
        }
    },
    "is_sentry_object": false
}